NORAD_CAT_ID,OBJECT_NAME,OBJECT_TYPE,EPOCH,MEAN_MOTION,ECCENTRICITY,INCLINATION,RA_OF_ASC_NODE,ARG_OF_PERICENTER,MEAN_ANOMALY,BSTAR,MEAN_MOTION_DOT,MEAN_MOTION_DDOT,TLE_LINE0,TLE_LINE1,TLE_LINE2,SEMIMAJOR_AXIS,PERIOD,APOGEE,PERIGEE,DECAYED
53593.0,STARLINK-4671,PAYLOAD,2024-07-12 22:02:35,15.08835429,0.0001105,53.2174,79.1377,94.3555,265.7564,1.7806e-05,-4e-08,0.0,0 STARLINK-4671,1 53593U 22104F   24194.91846313 -.00000004  00000-0  17806-4 0  9990,2 53593  53.2174  79.1377 0001105  94.3555 265.7564 15.08835429104646,6917.894,95.438,540.524,538.995,0.0
53593.0,STARLINK-4671,PAYLOAD,2024-07-13 09:10:17,15.08835708,0.000108,53.2172,77.0563,94.6552,265.4563,9.6722e-06,-1.34e-06,0.0,0 STARLINK-4671,1 53593U 22104F   24195.38214436 -.00000134  00000-0  96722-5 0  9996,2 53593  53.2172  77.0563 0001080  94.6552 265.4563 15.08835708104714,6917.894,95.438,540.506,539.011,0.0
53593.0,STARLINK-4671,PAYLOAD,2024-07-13 20:17:59,15.08837527,0.0001036,53.217,74.9744,93.82,266.291,4.9584e-05,5.01e-06,0.0,0 STARLINK-4671,1 53593U 22104F   24195.84582233  .00000501  00000-0  49584-4 0  9990,2 53593  53.2170  74.9744 0001036  93.8200 266.2910 15.08837527103761,6917.888,95.438,540.47,539.036,0.0
53593.0,STARLINK-4671,PAYLOAD,2024-07-13 21:53:22,15.0883713,0.0001022,53.2169,74.677,93.5915,266.5194,4.4692e-05,4.24e-06,0.0,0 STARLINK-4671,1 53593U 22104F   24195.91206282  .00000424  00000-0  44692-4 0  9994,2 53593  53.2169  74.6770 0001022  93.5915 266.5194 15.08837130104791,6917.889,95.438,540.461,539.047,0.0
53593.0,STARLINK-4671,PAYLOAD,2024-07-14 09:01:04,15.0883898,0.0001042,53.217,72.5952,85.7648,274.3464,5.2016e-05,5.4e-06,0.0,0 STARLINK-4671,1 53593U 22104F   24196.37574208  .00000540  00000-0  52016-4 0  9999,2 53593  53.2170  72.5952 0001042  85.7648 274.3464 15.08838980104869,6917.884,95.438,540.469,539.028,0.0
53593.0,STARLINK-4671,PAYLOAD,2024-07-14 21:44:09,15.08835704,0.0001134,53.2173,70.2156,84.7529,275.3593,2.1256e-06,-2.54e-06,0.0,0 STARLINK-4671,1 53593U 22104F   24196.90566650 -.00000254  00000-0  21256-5 0  9996,2 53593  53.2173  70.2156 0001134  84.7529 275.3593 15.08835704103923,6917.894,95.438,540.543,538.974,0.0
53593.0,STARLINK-4671,PAYLOAD,2024-07-15 08:51:51,15.08839163,0.0001166,53.2177,68.1343,83.8593,276.2532,4.1838e-05,3.78e-06,0.0,0 STARLINK-4671,1 53593U 22104F   24197.36934348  .00000378  00000-0  41838-4 0  9993,2 53593  53.2177  68.1343 0001166  83.8593 276.2532 15.08839163105015,6917.883,95.438,540.555,538.941,0.0
53593.0,STARLINK-4671,PAYLOAD,2024-07-15 21:34:56,15.08842167,0.0001124,53.2172,65.7548,89.491,270.6211,2.4276e-05,9.9e-07,0.0,0 STARLINK-4671,1 53593U 22104F   24197.89926167  .00000099  00000-0  24276-4 0  9998,2 53593  53.2172  65.7548 0001124  89.4910 270.6211 15.08842167104074,6917.874,95.437,540.516,538.961,0.0
53593.0,STARLINK-4671,PAYLOAD,2024-07-16 21:25:43,15.08834605,0.0001135,53.2172,61.2948,88.3979,271.7143,6.4306e-05,7.36e-06,0.0,0 STARLINK-4671,1 53593U 22104F   24198.89286334  .00000736  00000-0  64306-4 0  9990,2 53593  53.2172  61.2948 0001135  88.3979 271.7143 15.08834605105248,6917.897,95.438,540.547,538.977,0.0
53593.0,STARLINK-4671,PAYLOAD,2024-07-17 00:36:29,15.08831527,0.0001056,53.2172,60.7014,79.476,280.6351,2.791e-05,1.56e-06,0.0,0 STARLINK-4671,1 53593U 22104F   24199.02534711  .00000156  00000-0  27910-4 0  9997,2 53593  53.2172  60.7014 0001056  79.4760 280.6351 15.08831527104246,6917.906,95.438,540.502,539.041,0.0
53593.0,STARLINK-4671,PAYLOAD,2024-07-17 21:16:30,15.08838109,0.0001115,53.2176,56.8353,86.39,273.722,-2.6311e-05,-7.06e-06,0.0,0 STARLINK-4671,1 53593U 22104F   24199.88646646 -.00000706  00000-0 -26311-4 0  9999,2 53593  53.2176  56.8353 0001115  86.3900 273.7220 15.08838109105399,6917.886,95.438,540.523,538.98,0.0
53593.0,STARLINK-4671,PAYLOAD,2024-07-18 00:27:16,15.08838155,0.0001116,53.2176,56.2406,86.1531,273.9589,-2.4712e-05,-6.81e-06,0.0,0 STARLINK-4671,1 53593U 22104F   24200.01894647 -.00000681  00000-0 -24712-4 0  9998,2 53593  53.2176  56.2406 0001116  86.1531 273.9589 15.08838155104391,6917.886,95.438,540.523,538.979,0.0
53593.0,STARLINK-4671,PAYLOAD,2024-07-18 19:31:54,15.08833923,0.0001037,53.2173,52.673,73.1237,286.9868,6.7657e-08,-2.87e-06,0.0,0 STARLINK-4671,1 53593U 22104F   24200.81382938 -.00000287  00000-0  67657-7 0  9990,2 53593  53.2173  52.6730 0001037  73.1237 286.9868 15.08833923105538,6917.899,95.438,540.481,539.047,0.0
53593.0,STARLINK-4671,PAYLOAD,2024-07-19 06:39:36,15.08834393,0.0001039,53.2175,50.5912,101.8173,258.2936,3.878e-05,3.29e-06,0.0,0 STARLINK-4671,1 53593U 22104F   24201.27750825  .00000329  00000-0  38780-4 0  9993,2 53593  53.2175  50.5912 0001039 101.8173 258.2936 15.08834393104583,6917.898,95.438,540.481,539.044,0.0
53593.0,STARLINK-4671,PAYLOAD,2024-07-19 14:36:32,15.0883496,0.0001083,53.2179,49.1035,102.4423,257.669,1.6683e-05,-2.2e-07,0.0,0 STARLINK-4671,1 53593U 22104F   24201.60870924 -.00000022  00000-0  16683-4 0  9992,2 53593  53.2179  49.1035 0001083 102.4423 257.6690 15.08834960105650,6917.896,95.438,540.51,539.012,0.0
53593.0,STARLINK-4671,PAYLOAD,2024-07-19 20:58:05,15.08833929,0.0001103,53.2183,47.9144,89.4483,270.6636,1.0496e-05,-1.21e-06,0.0,0 STARLINK-4671,1 53593U 22104F   24201.87367158 -.00000121  00000-0  10496-4 0  9997,2 53593  53.2183  47.9144 0001103  89.4483 270.6636 15.08833929105698,6917.899,95.438,540.527,539.001,0.0
53593.0,STARLINK-4671,PAYLOAD,2024-07-20 06:30:23,15.08841191,0.0001172,53.2189,46.13,87.9073,272.2053,6.2575e-05,7.08e-06,0.0,0 STARLINK-4671,1 53593U 22104F   24202.27110587  .00000708  00000-0  62575-4 0  9999,2 53593  53.2189  46.1300 0001172  87.9073 272.2053 15.08841191105751,6917.877,95.437,540.553,538.931,0.0
53593.0,STARLINK-4671,PAYLOAD,2024-07-20 20:48:52,15.08828789,0.0001222,53.2195,43.4543,90.7994,269.3138,-2.7591e-05,-7.27e-06,0.0,0 STARLINK-4671,1 53593U 22104F   24202.86727874 -.00000727  00000-0 -27591-4 0  9999,2 53593  53.2195  43.4543 0001222  90.7994 269.3138 15.08828789104823,6917.915,95.438,540.625,538.934,0.0
53593.0,STARLINK-4671,PAYLOAD,2024-07-20 23:59:39,15.08831071,0.0001134,53.2189,42.8589,94.6718,265.4404,-1.7576e-05,-5.67e-06,0.0,0 STARLINK-4671,1 53593U 22104F   24202.99975725 -.00000567  00000-0 -17576-4 0  9997,2 53593  53.2189  42.8589 0001134  94.6718 265.4404 15.08831071105864,6917.908,95.438,540.557,538.988,0.0
53593.0,STARLINK-4671,PAYLOAD,2024-07-21 20:39:39,15.08840097,9.46e-05,53.2177,38.9934,95.2409,264.8691,6.8244e-05,7.99e-06,0.0,0 STARLINK-4671,1 53593U 22104F   24203.86086899  .00000799  00000-0  68244-4 0  9992,2 53593  53.2177  38.9934 0000946  95.2409 264.8691 15.08840097104975,6917.88,95.438,540.4,539.091,0.0
53593.0,STARLINK-4671,PAYLOAD,2024-07-22 22:05:49,15.0883734,8.16e-05,53.2164,34.2355,130.4576,229.6488,4.9864e-05,5.06e-06,0.0,0 STARLINK-4671,1 53593U 22104F   24204.92070970  .00000506  00000-0  49864-4 0  9996,2 53593  53.2164  34.2355 0000816 130.4576 229.6488 15.08837340106152,6917.889,95.438,540.318,539.189,0.0
53593.0,STARLINK-4671,PAYLOAD,2024-07-23 21:56:36,15.08836683,7.84e-05,53.2171,29.7723,101.0266,259.0815,-3.5631e-05,-8.55e-06,0.0,0 STARLINK-4671,1 53593U 22104F   24205.91431564 -.00000855  00000-0 -35631-4 0  9992,2 53593  53.2171  29.7723 0000784 101.0266 259.0815 15.08836683106309,6917.891,95.438,540.298,539.213,0.0
53593.0,STARLINK-4671,PAYLOAD,2024-07-24 21:47:23,15.08843304,0.0001125,53.2186,25.3142,81.2059,278.9061,5.4645e-05,5.82e-06,0.0,0 STARLINK-4671,1 53593U 22104F   24206.90790943  .00000582  00000-0  54645-4 0  9992,2 53593  53.2186  25.3142 0001125  81.2059 278.9061 15.08843304106458,6917.87,95.437,540.514,538.957,0.0
53593.0,STARLINK-4671,PAYLOAD,2024-07-25 21:38:11,15.08834387,7.23e-05,53.2169,20.8523,91.0731,269.0344,-1.0577e-05,-4.56e-06,0.0,0 STARLINK-4671,1 53593U 22104F   24207.90151665 -.00000456  00000-0 -10577-4 0  9993,2 53593  53.2169  20.8523 0000723  91.0731 269.0344 15.08834387106604,6917.898,95.438,540.263,539.262,0.0
53593.0,STARLINK-4671,PAYLOAD,2024-07-26 18:18:11,15.08840584,0.0001205,53.2162,16.9872,85.0381,275.0748,2.762e-05,1.52e-06,0.0,0 STARLINK-4671,1 53593U 22104F   24208.76263292  .00000152  00000-0  27620-4 0  9996,2 53593  53.2162  16.9872 0001205  85.0381 275.0748 15.08840584105712,6917.879,95.438,540.577,538.91,0.0
53593.0,STARLINK-4671,PAYLOAD,2024-07-27 03:50:31,15.08829378,0.0001154,53.2136,15.2043,87.4422,272.6702,-7.9352e-06,-4.14e-06,0.0,0 STARLINK-4671,1 53593U 22104F   24209.16008211 -.00000414  00000-0 -79352-5 0  9992,2 53593  53.2136  15.2043 0001154  87.4422 272.6702 15.08829378105777,6917.913,95.438,540.576,538.98,0.0
53593.0,STARLINK-4671,PAYLOAD,2024-07-28 03:41:17,15.08836808,0.0001166,53.2137,10.7424,85.8781,274.2344,1.811e-06,-2.59e-06,0.0,0 STARLINK-4671,1 53593U 22104F   24210.15367985 -.00000259  00000-0  18110-5 0  9990,2 53593  53.2137  10.7424 0001166  85.8781 274.2344 15.08836808105927,6917.89,95.438,540.562,538.949,0.0
53593.0,STARLINK-4671,PAYLOAD,2024-07-28 17:59:46,15.088345,0.0001217,53.2189,8.0665,82.5141,277.599,2.1181e-05,4.9e-07,0.0,0 STARLINK-4671,1 53593U 22104F   24210.74984258  .00000049  00000-0  21181-4 0  9990,2 53593  53.2189   8.0665 0001217  82.5141 277.5990 15.08834500107036,6917.897,95.438,540.604,538.92,0.0
53593.0,STARLINK-4671,PAYLOAD,2024-07-29 03:32:04,15.08860463,0.0001302,53.2193,6.281,84.8444,275.2697,-0.00013475,-2.433e-05,0.0,0 STARLINK-4671,1 53593U 22104F   24211.14727091 -.00002433  00000-0 -13475-3 0  9992,2 53593  53.2193   6.2810 0001302  84.8444 275.2697 15.08860463106078,6917.818,95.436,540.584,538.782,0.0
53593.0,STARLINK-4671,PAYLOAD,2024-07-29 09:53:37,15.08836658,5.2e-05,53.219,5.0954,112.1405,247.9642,0.00011859,1.6e-05,0.0,0 STARLINK-4671,1 53593U 22104F   24211.41223535  .00001600  00000-0  11859-3 0  9993,2 53593  53.2190   5.0954 0000520 112.1405 247.9642 15.08836658106114,6917.891,95.438,540.115,539.396,0.0
